PROBA-1                 
1 26958U 01049B   23242.39927666  .00003623  00000+0  29240-3 0  9998
2 26958  97.8812 209.4728 0066462 320.3221  39.3148 14.98802258190157
BIRD 2                  
1 26959U 01049C   23242.34636183  .00157677  00000+0  64226-3 0  9997
2 26959  97.7751  17.9534 0004664 223.8452 136.2448 15.85739966215234
CUTE-1 (CO-55)          
1 27844U 03031E   23242.01799493  .00000381  00000+0  18888-3 0  9994
2 27844  98.6799 248.2001 0008514 272.1321  87.8882 14.22857432 46265
CUBESAT XI-IV (CO-57)   
1 27848U 03031J   23241.98441017  .00000323  00000+0  16487-3 0  9998
2 27848  98.6835 248.5539 0008511 289.9916  70.0345 14.22357691 46048
GENESIS 1               
1 29252U 06029A   23241.85428529  .00009421  00000+0  34712-3 0  9997
2 29252  64.5190  64.4300 0015965 209.2450 150.7786 15.28231928945779
GENESIS 2               
1 31789U 07028A   23241.81421474  .00007492  00000+0  27867-3 0  9992
2 31789  64.4935 109.0050 0054328 250.9198 108.6042 15.26877242892646
APRIZESAT 4             
1 35684U 09041D   23242.34396452  .00000950  00000+0  12938-3 0  9998
2 35684  98.2799 275.5245 0046527  24.2087 336.1296 14.80530421760033
APRIZESAT 3             
1 35686U 09041F   23241.83400314  .00002508  00000+0  25814-3 0  9994
2 35686  98.1023 343.3557 0069803 191.0544 168.9143 14.89482325763872
PROBA-2                 
1 36037U 09059B   23242.10656394  .00000283  00000+0  78350-4 0  9998
2 36037  98.2283  65.6165 0013075 190.8120 169.2798 14.53590782733064
APRIZESAT 5             
1 37792U 11044E   23242.26617866  .00001152  00000+0  16802-3 0  9991
2 37792  98.2660 134.3340 0057744  44.9069 315.6790 14.76727516647877
APRIZESAT 6             
1 37793U 11044F   23242.24466080  .00000806  00000+0  13013-3 0  9996
2 37793  98.3426 112.9768 0047263 104.0990  11.7136 14.73570396646619
PROBA-V                 
1 39159U 13021A   23242.03127236  .00000102  00000+0  63189-4 0  9994
2 39159  98.3189 259.7460 0003079 238.8462 121.2415 14.23144730535707
APRIZESAT 7             
1 39416U 13066A   23242.39434603  .00001736  00000+0  20269-3 0  9992
2 39416  97.6265 207.4382 0039495 353.8958   6.1771 14.85866595529215
APRIZESAT 8             
1 39425U 13066K   23242.14259742  .00001542  00000+0  19259-3 0  9996
2 39425  97.6845 199.7241 0051507  44.8235 315.7122 14.82828625528216
BUGSAT-1 (TITA)         
1 40014U 14033E   23242.14684519  .00004713  00000+0  37792-3 0  9996
2 40014  98.1352 264.4227 0035420  28.1928 332.1201 15.00141620501817
SAUDISAT 4              
1 40016U 14033G   23242.08603182  .00000925  00000+0  13788-3 0  9998
2 40016  97.6457  57.9627 0048034 156.1408 204.2044 14.76316024495111
APRIZESAT 9             
1 40018U 14033J   23242.40070871  .00000864  00000+0  14361-3 0  9999
2 40018  97.7635  35.7947 0068813 243.6652 115.7478 14.71053305493290
APRIZESAT 10            
1 40019U 14033K   23242.35988626  .00000570  00000+0  10301-3 0  9994
2 40019  97.8262  26.5846 0081547 296.3386  62.9461 14.68036899492358
TDS 1                   
1 40076U 14037H   23242.32968462  .00004405  00000+0  47084-3 0  9993
2 40076  98.3353 143.3685 0008067  89.2647 270.9493 14.89309408495016
TIANTUO 2               
1 40144U 14053B   23242.45565347  .00012285  00000+0  24427-3 0  9997
2 40144  97.1565 319.9572 0009699  53.0573 307.1565 15.47041046502725
TECHNOSAT               
1 42829U 17042E   23242.34096775  .00002496  00000+0  23866-3 0  9991
2 42829  97.3865  75.3609 0012739 342.9114  17.1677 14.94020318333562
FLYING LAPTOP           
1 42831U 17042G   23242.40469027  .00001430  00000+0  14126-3 0  9991
2 42831  97.3893  75.6775 0012939 344.1404  15.9409 14.93338028333569
HAWK-A                  
1 43765U 18099H   23242.45534478  .00003968  00000+0  32398-3 0  9998
2 43765  97.5665 303.6349 0010471 217.6775 142.3716 14.99928851258871
HAWK-B                  
1 43794U 18099AN  23242.12215173  .00003964  00000+0  32371-3 0  9999
2 43794  97.5665 303.3100 0010415 219.9047 140.1412 14.99926722258818
HAWK-C                  
1 43799U 18099AT  23242.38884435  .00003945  00000+0  32217-3 0  9993
2 43799  97.5665 303.4670 0010352 218.3525 141.6964 14.99928571258856
SALSAT                  
1 46495U 20068K   23241.83651327  .00003844  00000+0  25057-3 0  9991
2 46495  97.7738 190.6732 0013831 224.2399 135.7724 15.08452455160179
HAWK-2C                 
1 47502U 21006CT  23242.13954996  .00008983  00000+0  43368-3 0  9990
2 47502  97.3801 294.3563 0008758 195.4719 164.6249 15.18856892143658
HAWK-2A                 
1 47505U 21006CW  23241.87628743  .00011652  00000+0  56137-3 0  9996
2 47505  97.3803 294.2077 0008639 196.0420 164.0542 15.18857185143618
HAWK-2B                 
1 47508U 21006CZ  23242.07411922  .00009409  00000+0  45399-3 0  9996
2 47508  97.3800 294.2911 0008954 196.5907 163.5035 15.18860624143646
HAWK-3B                 
1 48931U 21059BE  23242.31034714  .00007123  00000+0  31763-3 0  9993
2 48931  97.5936  16.8180 0014354  28.0569 332.1437 15.21633680120558
HAWK-3C                 
1 48948U 21059BX  23241.91551760  .00007199  00000+0  32088-3 0  9995
2 48948  97.6200  18.9696 0015402  32.4567 327.7613 15.21632707120496
HAWK-3A                 
1 48957U 21059CG  23241.38926055  .00007147  00000+0  31866-3 0  9995
2 48957  97.6064  17.1685 0015351  28.5002 331.7070 15.21622480120417
HAWK-4B                 
1 52165U 22033J   23242.22342048  .00009529  00000+0  33567-3 0  9998
2 52165  97.3541 321.8644 0007581 268.7943  91.2429 15.29483177 78557
HAWK-4A                 
1 52167U 22033L   23242.22314379  .00009634  00000+0  33939-3 0  9996
2 52167  97.3491 321.5596 0007014 268.3689  91.6748 15.29481338 78555
HAWK-4C                 
1 52170U 22033P   23242.22299577  .00009726  00000+0  34246-3 0  9996
2 52170  97.3539 321.8496 0008973 254.2711 105.7540 15.29480577 78550
HAWK-5C                 
1 52754U 22057Y   23241.85149942  .00006262  00000+0  31413-3 0  9993
2 52754  97.5610 357.8616 0010208  88.8696 271.3707 15.17644667 69790
HAWK-5B                 
1 52756U 22057AA  23242.31286786  .00005987  00000+0  30032-3 0  9994
2 52756  97.5455 357.3440 0010860  82.9267 277.3201 15.17654406 69867
HAWK-5A                 
1 52757U 22057AB  23242.31264741  .00006067  00000+0  30428-3 0  9991
2 52757  97.5533 357.8299 0011207  86.1660 274.0854 15.17653807 69863
HAWK-6B                 
1 55324U 23011A   23241.65448035  .00003360  00000+0  22573-3 0  9996
2 55324  40.5184 126.4932 0006388 280.4868  79.5216 15.07894333 32683
HAWK-6C                 
1 55326U 23011C   23242.05155064  .00003228  00000+0  21720-3 0  9996
2 55326  40.4868 123.5800 0006370 275.6044  84.4034 15.07897090 32752
HAWK-6A                 
1 55327U 23011D   23241.38911712  .00003441  00000+0  23090-3 0  9991
2 55327  40.5029 127.6990 0006328 269.1454  90.8625 15.07892867 32657
HAWK-7A                 
1 56191U 23054P   23241.75955451  .00006707  00000+0  29178-3 0  9998
2 56191  97.3983 135.6985 0013269 119.9123 240.3433 15.22496398 21378
HAWK-7B                 
1 56193U 23054R   23241.69379363  .00006945  00000+0  30219-3 0  9997
2 56193  97.3855 135.3308 0012347 108.7488 251.5089 15.22487992 21360
HAWK-7C                 
1 56200U 23054Y   23242.28489804  .00011950  00000+0  51753-3 0  9992
2 56200  97.3881 136.0697 0013603 111.1178 249.1514 15.22468890 21459
